DTC TEST OBJECT A       
1 69472U 26128A   26165.46978509  .00023429  00000+0  34031-3 0  9998
2 69472  54.9942 317.5814 0008224 278.4608  81.5496 15.55717556   801
DTC TEST OBJECT B       
1 69473U 26128B   26165.46889981  .00026206  00000+0  37386-3 0  9996
2 69473  55.0033 317.5791 0008282 279.3888  80.6211 15.56138558   796
TJS-25                  
1 69474U 26129A   26162.48255804  .00007407  00000+0  19774-2 0  9990
2 69474  16.5302  30.5351 7751889 199.9639  91.9387  1.72502163    78
2026-132A               
1 69502U 26132A   26165.48509284  .00000609  00000+0  55029-4 0  9995
2 69502  97.6916 229.1961 0012243 281.3285  78.6562 14.99042114   372
2026-132B               
1 69503U 26132B   26165.41819792  .00000306  00000+0  30061-4 0  9990
2 69503  97.6947 229.1315 0012184 283.7476  76.2390 14.99133072   368
2026-132C               
1 69504U 26132C   26165.28377877  .00001425  00000+0  12001-3 0  9995
2 69504  97.6888 228.9971 0013698 295.8882  64.0929 14.99755875   346
2026-132D               
1 69505U 26132D   26164.41554847  .00001509  00000+0  12292-3 0  9999
2 69505  97.6871 228.1350 0011034 315.3023  44.7311 15.00977591   208
2026-132E               
1 69506U 26132E   26164.95816030  .00001978  00000+0  19337-3 0  9991
2 69506  97.6694 228.6931 0002823 327.8572  32.2476 14.93464297   293
2026-132F               
1 69507U 26132F   26164.41540372  .00003170  00000+0  25250-3 0  9993
2 69507  97.6869 228.1362 0010915 319.8335  40.2082 15.01040982   204
