OBJECT_NAME,OBJECT_ID,EPOCH,MEAN_MOTION,ECCENTRICITY,INCLINATION,RA_OF_ASC_NODE,ARG_OF_PERICENTER,MEAN_ANOMALY,EPHEMERIS_TYPE,CLASSIFICATION_TYPE,NORAD_CAT_ID,ELEMENT_SET_NO,REV_AT_EPOCH,BSTAR,MEAN_MOTION_DOT,MEAN_MOTION_DDOT
DTC TEST OBJECT A,2026-128A,2026-06-14T11:16:29.431776,15.55717556,.0008224,54.9942,317.5814,278.4608,81.5496,0,U,69472,999,80,.34031E-3,.23429E-3,0
DTC TEST OBJECT B,2026-128B,2026-06-14T11:15:12.943584,15.56138558,.0008282,55.0033,317.5791,279.3888,80.6211,0,U,69473,999,79,.37386E-3,.26206E-3,0
TJS-25,2026-129A,2026-06-11T11:34:53.014656,1.72502163,.7751889,16.5302,30.5351,199.9639,91.9387,0,U,69474,999,7,.19774E-2,.7407E-4,0
2026-132A,2026-132A,2026-06-14T11:38:32.021376,14.99042114,.0012243,97.6916,229.1961,281.3285,78.6562,0,U,69502,999,37,.55029E-4,.609E-5,0
2026-132B,2026-132B,2026-06-14T10:02:12.300288,14.99133072,.0012184,97.6947,229.1315,283.7476,76.2390,0,U,69503,999,36,.30061E-4,.306E-5,0
2026-132C,2026-132C,2026-06-14T06:48:38.485728,14.99755875,.0013698,97.6888,228.9971,295.8882,64.0929,0,U,69504,999,34,.12001E-3,.1425E-4,0
2026-132D,2026-132D,2026-06-13T09:58:23.387808,15.00977591,.00110344,97.6871,228.1350,315.3023,44.7311,0,U,69505,999,20,.12291978E-3,.1509E-4,0
2026-132E,2026-132E,2026-06-13T22:59:45.049920,14.93464297,.00028233,97.6694,228.6931,327.8572,32.2476,0,U,69506,999,29,.19336817E-3,.1978E-4,0
2026-132F,2026-132F,2026-06-13T09:58:10.881408,15.01040982,.00109152,97.6869,228.1362,319.8335,40.2082,0,U,69507,999,20,.25250362E-3,.317E-4,0
